{
    "links": {
        "self": "http://www.neowsapp.com/rest/v1/neo/3840750?api_key=iIulBulltgU6a56xZRHN4H3l9WmuAYTsLGpBGhQ2"
    },
    "id": "3840750",
    "neo_reference_id": "3840750",
    "name": "(2019 FZ2)",
    "designation": "2019 FZ2",
    "nasa_jpl_url": "http://ssd.jpl.nasa.gov/sbdb.cgi?sstr=3840750",
    "absolute_magnitude_h": 24.8,
    "estimated_diameter": {
        "kilometers": {
            "estimated_diameter_min": 0.0291443905,
            "estimated_diameter_max": 0.0651688382
        },
        "meters": {
            "estimated_diameter_min": 29.1443904535,
            "estimated_diameter_max": 65.1688382168
        },
        "miles": {
            "estimated_diameter_min": 0.018109479,
            "estimated_diameter_max": 0.0404940262
        },
        "feet": {
            "estimated_diameter_min": 95.6180819754,
            "estimated_diameter_max": 213.8085311752
        }
    },
    "is_potentially_hazardous_asteroid": false,
    "close_approach_data": [
        {
            "close_approach_date": "2019-04-05",
            "close_approach_date_full": "2019-Apr-05 04:30",
            "epoch_date_close_approach": 1554438600000,
            "relative_velocity": {
                "kilometers_per_second": "11.4863599773",
                "kilometers_per_hour": "41350.8959181209",
                "miles_per_hour": "25693.8386331235"
            },
            "miss_distance": {
                "astronomical": "0.1186543556",
                "lunar": "46.1565443284",
                "kilometers": "17750438.863982572",
                "miles": "11029611.2602086136"
            },
            "orbiting_body": "Earth"
        }
    ],
    "orbital_data": {
        "orbit_id": "2",
        "orbit_determination_date": "2019-04-05 07:30:27",
        "first_observation_date": "2019-03-31",
        "last_observation_date": "2019-04-04",
        "data_arc_in_days": 4,
        "observations_used": 28,
        "orbit_uncertainty": "8",
        "minimum_orbit_intersection": ".118272",
        "jupiter_tisserand_invariant": "4.697",
        "epoch_osculation": "2458575.5",
        "eccentricity": ".2219455269682612",
        "semi_major_axis": "1.385650501814677",
        "inclination": "20.57529491725156",
        "ascending_node_longitude": "9.072318966949858",
        "orbital_period": "595.7704820740292",
        "perihelion_distance": "1.078111570995583",
        "perihelion_argument": "219.6780809231562",
        "aphelion_distance": "1.693189432633772",
        "perihelion_time": "2458613.386194135783",
        "mean_anomaly": "337.1069055965966",
        "mean_motion": ".6042595442908618",
        "equinox": "J2000",
        "orbit_class": {
            "orbit_class_type": "AMO",
            "orbit_class_description": "Near-Earth asteroid orbits similar to that of 1221 Amor",
            "orbit_class_range": "1.017 AU < q (perihelion) < 1.3 AU"
        }
    },
    "is_sentry_object": false
}